[
  {"name": "Afghanistan", "dial_code": "93"},
  {"name": "Albanie", "dial_code": "355"},
  {"name": "AlgÃ©rie", "dial_code": "213"},
  {"name": "Andorre", "dial_code": "376"},
  {"name": "Angola", "dial_code": "244"},
  {"name": "Antigua-et-Barbuda", "dial_code": "1268"},
  {"name": "Argentine", "dial_code": "54"},
  {"name": "ArmÃ©nie", "dial_code": "374"},
  {"name": "Australie", "dial_code": "61"},
  {"name": "Autriche", "dial_code": "43"},
  {"name": "AzerbaÃ¯djan", "dial_code": "994"},
  {"name": "Bahamas", "dial_code": "1242"},
  {"name": "BahreÃ¯n", "dial_code": "973"},
  {"name": "Bangladesh", "dial_code": "880"},
  {"name": "Barbade", "dial_code": "1246"},
  {"name": "Belgique", "dial_code": "32"},
  {"name": "Belize", "dial_code": "501"},
  {"name": "BÃ©nin", "dial_code": "229"},
  {"name": "Bhoutan", "dial_code": "975"},
  {"name": "BiÃ©lorussie", "dial_code": "375"},
  {"name": "Birmanie", "dial_code": "95"},
  {"name": "Bolivie", "dial_code": "591"},
  {"name": "Bosnie-HerzÃ©govine", "dial_code": "387"},
  {"name": "Botswana", "dial_code": "267"},
  {"name": "BrÃ©sil", "dial_code": "55"},
  {"name": "Brunei", "dial_code": "673"},
  {"name": "Bulgarie", "dial_code": "359"},
  {"name": "Burkina Faso", "dial_code": "226"},
  {"name": "Burundi", "dial_code": "257"},
  {"name": "Cambodge", "dial_code": "855"},
  {"name": "Cameroun", "dial_code": "237"},
  {"name": "Canada", "dial_code": "1"},
  {"name": "Cap-Vert", "dial_code": "238"},
  {"name": "RÃ©publique centrafricaine", "dial_code": "236"},
  {"name": "Tchad", "dial_code": "235"},
  {"name": "Chili", "dial_code": "56"},
  {"name": "Chine", "dial_code": "86"},
  {"name": "Colombie", "dial_code": "57"},
  {"name": "Comores", "dial_code": "269"},
  {"name": "Congo (Brazzaville)", "dial_code": "242"},
  {"name": "Congo (RDC)", "dial_code": "243"},
  {"name": "Costa Rica", "dial_code": "506"},
  {"name": "Croatie", "dial_code": "385"},
  {"name": "Cuba", "dial_code": "53"},
  {"name": "Chypre", "dial_code": "357"},
  {"name": "RÃ©publique tchÃ¨que", "dial_code": "420"},
  {"name": "Danemark", "dial_code": "45"},
  {"name": "Djibouti", "dial_code": "253"},
  {"name": "Dominique", "dial_code": "1767"},
  {"name": "RÃ©publique dominicaine", "dial_code": "1809"},
  {"name": "Timor-Leste", "dial_code": "670"},
  {"name": "Ã‰quateur", "dial_code": "593"},
  {"name": "Ã‰gypte", "dial_code": "20"},
  {"name": "El Salvador", "dial_code": "503"},
  {"name": "GuinÃ©e Ã©quatoriale", "dial_code": "240"},
  {"name": "Ã‰rythrÃ©e", "dial_code": "291"},
  {"name": "Estonie", "dial_code": "372"},
  {"name": "Eswatini", "dial_code": "268"},
  {"name": "Ã‰thiopie", "dial_code": "251"},
  {"name": "Fidji", "dial_code": "679"},
  {"name": "Finlande", "dial_code": "358"},
  {"name": "France", "dial_code": "33"},
  {"name": "Gabon", "dial_code": "241"},
  {"name": "Gambie", "dial_code": "220"},
  {"name": "GÃ©orgie", "dial_code": "995"},
  {"name": "Allemagne", "dial_code": "49"},
  {"name": "Ghana", "dial_code": "233"},
  {"name": "GrÃ¨ce", "dial_code": "30"},
  {"name": "Grenade", "dial_code": "1473"},
  {"name": "Guatemala", "dial_code": "502"},
  {"name": "GuinÃ©e", "dial_code": "224"},
  {"name": "GuinÃ©e-Bissau", "dial_code": "245"},
  {"name": "Guyana", "dial_code": "592"},
  {"name": "HaÃ¯ti", "dial_code": "509"},
  {"name": "Honduras", "dial_code": "504"},
  {"name": "Hongrie", "dial_code": "36"},
  {"name": "Islande", "dial_code": "354"},
  {"name": "Inde", "dial_code": "91"},
  {"name": "IndonÃ©sie", "dial_code": "62"},
  {"name": "Iran", "dial_code": "98"},
  {"name": "Irak", "dial_code": "964"},
  {"name": "Irlande", "dial_code": "353"},
  {"name": "BÃ©nin", "dial_code": "229"},
  {"name": "Bhoutan", "dial_code": "975"},
  {"name": "BiÃ©lorussie", "dial_code": "375"},
  {"name": "Birmanie", "dial_code": "95"},
  {"name": "Bolivie", "dial_code": "591"},
  {"name": "Bosnie-HerzÃ©govine", "dial_code": "387"},
  {"name": "Botswana", "dial_code": "267"},
  {"name": "BrÃ©sil", "dial_code": "55"},
  {"name": "Brunei", "dial_code": "673"},
  {"name": "Bulgarie", "dial_code": "359"},
  {"name": "Burkina Faso", "dial_code": "226"},
  {"name": "Burundi", "dial_code": "257"},
  {"name": "Cambodge", "dial_code": "855"},
  {"name": "Cameroun", "dial_code": "237"},
  {"name": "Canada", "dial_code": "1"},
  {"name": "Cap-Vert", "dial_code": "238", "emoji": "ğŸ‡¨ğŸ‡»"},
  {"name": "RÃ©publique centrafricaine", "dial_code": "236", "emoji": "ğŸ‡¨ğŸ‡«"},
  {"name": "Tchad", "dial_code": "235", "emoji": "ğŸ‡¹ğŸ‡©"},
  {"name": "Chili", "dial_code": "56", "emoji": "ğŸ‡¨ğŸ‡±"},
  {"name": "Chine", "dial_code": "86", "emoji": "ğŸ‡¨ğŸ‡³"},
  {"name": "Colombie", "dial_code": "57", "emoji": "ğŸ‡¨ğŸ‡´"},
  {"name": "Comores", "dial_code": "269", "emoji": "ğŸ‡°ğŸ‡²"},
  {"name": "Congo (Brazzaville)", "dial_code": "242", "emoji": "ğŸ‡¨ğŸ‡¬"},
  {"name": "Congo (RDC)", "dial_code": "243", "emoji": "ğŸ‡¨ğŸ‡©"},
  {"name": "Costa Rica", "dial_code": "506", "emoji": "ğŸ‡¨ğŸ‡·"},
  {"name": "Croatie", "dial_code": "385", "emoji": "ğŸ‡­ğŸ‡·"},
  {"name": "Cuba", "dial_code": "53", "emoji": "ğŸ‡¨ğŸ‡º"},
  {"name": "Chypre", "dial_code": "357", "emoji": "ğŸ‡¨ğŸ‡¾"},
  {"name": "RÃ©publique tchÃ¨que", "dial_code": "420", "emoji": "ğŸ‡¨ğŸ‡¿"},
  {"name": "Danemark", "dial_code": "45", "emoji": "ğŸ‡©ğŸ‡°"},
  {"name": "Djibouti", "dial_code": "253", "emoji": "ğŸ‡©ğŸ‡¯"},
  {"name": "Dominique", "dial_code": "1767", "emoji": "ğŸ‡©ğŸ‡²"},
  {"name": "RÃ©publique dominicaine", "dial_code": "1809", "emoji": "ğŸ‡©ğŸ‡´"},
  {"name": "Timor-Leste", "dial_code": "670", "emoji": "ğŸ‡¹ğŸ‡±"},
  {"name": "Ã‰quateur", "dial_code": "593", "emoji": "ğŸ‡ªğŸ‡¨"},
  {"name": "Ã‰gypte", "dial_code": "20", "emoji": "ğŸ‡ªğŸ‡¬"},
  {"name": "El Salvador", "dial_code": "503", "emoji": "ğŸ‡¸ğŸ‡»"},
  {"name": "GuinÃ©e Ã©quatoriale", "dial_code": "240", "emoji": "ğŸ‡¬ğŸ‡¶"},
  {"name": "Ã‰rythrÃ©e", "dial_code": "291", "emoji": "ğŸ‡ªğŸ‡·"},
  {"name": "Estonie", "dial_code": "372", "emoji": "ğŸ‡ªğŸ‡ª"},
  {"name": "Eswatini", "dial_code": "268", "emoji": "ğŸ‡¸ğŸ‡¿"},
  {"name": "Ã‰thiopie", "dial_code": "251", "emoji": "ğŸ‡ªğŸ‡¹"},
  {"name": "Fidji", "dial_code": "679", "emoji": "ğŸ‡«ğŸ‡¯"},
  {"name": "Finlande", "dial_code": "358", "emoji": "ğŸ‡«ğŸ‡®"},
  {"name": "France", "dial_code": "33", "emoji": "ğŸ‡«ğŸ‡·"},
  {"name": "Gabon", "dial_code": "241", "emoji": "ğŸ‡¬ğŸ‡¦"},
  {"name": "Gambie", "dial_code": "220", "emoji": "ğŸ‡¬ğŸ‡²"},
  {"name": "GÃ©orgie", "dial_code": "995", "emoji": "ğŸ‡¬ğŸ‡ª"},
  {"name": "Allemagne", "dial_code": "49", "emoji": "ğŸ‡©ğŸ‡ª"},
  {"name": "Ghana", "dial_code": "233", "emoji": "ğŸ‡¬ğŸ‡­"},
  {"name": "GrÃ¨ce", "dial_code": "30", "emoji": "ğŸ‡¬ğŸ‡·"},
  {"name": "Grenade", "dial_code": "1473", "emoji": "ğŸ‡¬ğŸ‡©"},
  {"name": "Guatemala", "dial_code": "502", "emoji": "ğŸ‡¬ğŸ‡¹"},
  {"name": "GuinÃ©e", "dial_code": "224", "emoji": "ğŸ‡¬ğŸ‡³"},
  {"name": "GuinÃ©e-Bissau", "dial_code": "245", "emoji": "ğŸ‡¬ğŸ‡¼"},
  {"name": "Guyana", "dial_code": "592", "emoji": "ğŸ‡¬ğŸ‡¾"},
  {"name": "HaÃ¯ti", "dial_code": "509", "emoji": "ğŸ‡­ğŸ‡¹"},
  {"name": "Honduras", "dial_code": "504", "emoji": "ğŸ‡­ğŸ‡³"},
  {"name": "Hongrie", "dial_code": "36", "emoji": "ğŸ‡­ğŸ‡º"},
  {"name": "Islande", "dial_code": "354", "emoji": "ğŸ‡®ğŸ‡¸"},
  {"name": "Inde", "dial_code": "91", "emoji": "ğŸ‡®ğŸ‡³"},
  {"name": "IndonÃ©sie", "dial_code": "62", "emoji": "ğŸ‡®ğŸ‡©"},
  {"name": "Iran", "dial_code": "98", "emoji": "ğŸ‡®ğŸ‡·"},
  {"name": "Irak", "dial_code": "964", "emoji": "ğŸ‡®ğŸ‡¶"},
  {"name": "Irlande", "dial_code": "353", "emoji": "ğŸ‡®ğŸ‡ª"},
  {"name": "IsraÃ«l", "dial_code": "972", "emoji": "ğŸ‡®ğŸ‡±"},
  {"name": "Italie", "dial_code": "39", "emoji": "ğŸ‡®ğŸ‡¹"},
  {"name": "JamaÃ¯que", "dial_code": "1876", "emoji": "ğŸ‡¯ğŸ‡²"},
  {"name": "Japon", "dial_code": "81", "emoji": "ğŸ‡¯ğŸ‡µ"},
  {"name": "Jordanie", "dial_code": "962", "emoji": "ğŸ‡¯ğŸ‡´"},
  {"name": "Kazakhstan", "dial_code": "7", "emoji": "ğŸ‡°ğŸ‡¿"},
  {"name": "Kenya", "dial_code": "254", "emoji": "ğŸ‡°ğŸ‡ª"},
  {"name": "Kiribati", "dial_code": "686", "emoji": "ğŸ‡°ğŸ‡®"},
  {"name": "CorÃ©e du Nord", "dial_code": "850", "emoji": "ğŸ‡°ğŸ‡µ"},
  {"name": "CorÃ©e du Sud", "dial_code": "82", "emoji": "ğŸ‡°ğŸ‡·"},
  {"name": "KoweÃ¯t", "dial_code": "965", "emoji": "ğŸ‡°ğŸ‡¼"},
  {"name": "Kirghizistan", "dial_code": "996", "emoji": "ğŸ‡°ğŸ‡¬"},
  {"name": "Laos", "dial_code": "856", "emoji": "ğŸ‡±ğŸ‡¦"},
  {"name": "Lettonie", "dial_code": "371", "emoji": "ğŸ‡±ğŸ‡»"},
  {"name": "Liban", "dial_code": "961", "emoji": "ğŸ‡±ğŸ‡§"},
  {"name": "Lesotho", "dial_code": "266", "emoji": "ğŸ‡±ğŸ‡¸"},
  {"name": "Liberia", "dial_code": "231", "emoji": "ğŸ‡±ğŸ‡·"},
  {"name": "Libye", "dial_code": "218", "emoji": "ğŸ‡±ğŸ‡¾"},
  {"name": "Liechtenstein", "dial_code": "423", "emoji": "ğŸ‡±ğŸ‡®"},
  {"name": "Lituanie", "dial_code": "370", "emoji": "ğŸ‡±ğŸ‡¹"},
  {"name": "Luxembourg", "dial_code": "352", "emoji": "ğŸ‡±ğŸ‡º"},
  {"name": "Madagascar", "dial_code": "261", "emoji": "ğŸ‡²ğŸ‡¬"},
  {"name": "Malawi", "dial_code": "265", "emoji": "ğŸ‡²ğŸ‡¼"},
  {"name": "Malaisie", "dial_code": "60", "emoji": "ğŸ‡²ğŸ‡¾"},
  {"name": "Maldives", "dial_code": "960", "emoji": "ğŸ‡²ğŸ‡»"},
  {"name": "Mali", "dial_code": "223", "emoji": "ğŸ‡²ğŸ‡±"},
  {"name": "Malte", "dial_code": "356", "emoji": "ğŸ‡²ğŸ‡¹"},
  {"name": "Ãles Marshall", "dial_code": "692", "emoji": "ğŸ‡²ğŸ‡­"},
  {"name": "Mauritanie", "dial_code": "222", "emoji": "ğŸ‡²ğŸ‡·"},
  {"name": "Maurice", "dial_code": "230", "emoji": "ğŸ‡²ğŸ‡º"},
  {"name": "Mexique", "dial_code": "52", "emoji": "ğŸ‡²ğŸ‡½"},
  {"name": "MicronÃ©sie", "dial_code": "691", "emoji": "ğŸ‡«ğŸ‡²"},
  {"name": "Moldavie", "dial_code": "373", "emoji": "ğŸ‡²ğŸ‡©"},
  {"name": "Monaco", "dial_code": "377", "emoji": "ğŸ‡²ğŸ‡¨"},
  {"name": "Mongolie", "dial_code": "976", "emoji": "ğŸ‡²ğŸ‡³"},
  {"name": "MontÃ©nÃ©gro", "dial_code": "382", "emoji": "ğŸ‡²ğŸ‡ª"},
  {"name": "Maroc", "dial_code": "212", "emoji": "ğŸ‡²ğŸ‡¦"},
  {"name": "Mozambique", "dial_code": "258", "emoji": "ğŸ‡²ğŸ‡¿"},
  {"name": "Namibie", "dial_code": "264", "emoji": "ğŸ‡³ğŸ‡¦"},
  {"name": "Nauru", "dial_code": "674", "emoji": "ğŸ‡³ğŸ‡·"},
  {"name": "NÃ©pal", "dial_code": "977", "emoji": "ğŸ‡³ğŸ‡µ"},
  {"name": "Pays-Bas", "dial_code": "31", "emoji": "ğŸ‡³ğŸ‡±"},
  {"name": "Nouvelle-ZÃ©lande", "dial_code": "64", "emoji": "ğŸ‡³ğŸ‡¿"},
  {"name": "Nicaragua", "dial_code": "505", "emoji": "ğŸ‡³ğŸ‡®"},
  {"name": "Niger", "dial_code": "227", "emoji": "ğŸ‡³ğŸ‡ª"},
  {"name": "NigÃ©ria", "dial_code": "234", "emoji": "ğŸ‡³ğŸ‡¬"},
  {"name": "MacÃ©doine du Nord", "dial_code": "389", "emoji": "ğŸ‡²ğŸ‡°"},
  {"name": "NorvÃ¨ge", "dial_code": "47", "emoji": "ğŸ‡³ğŸ‡´"},
  {"name": "Oman", "dial_code": "968", "emoji": "ğŸ‡´ğŸ‡²"},
  {"name": "Pakistan", "dial_code": "92", "emoji": "ğŸ‡µğŸ‡°"},
  {"name": "Palaos", "dial_code": "680", "emoji": "ğŸ‡µğŸ‡¼"},
  {"name": "Panama", "dial_code": "507", "emoji": "ğŸ‡µğŸ‡¦"},
  {"name": "Papouasie-Nouvelle-GuinÃ©e", "dial_code": "675", "emoji": "ğŸ‡µğŸ‡¬"},
  {"name": "Paraguay", "dial_code": "595", "emoji": "ğŸ‡µğŸ‡¾"},
  {"name": "PÃ©rou", "dial_code": "51", "emoji": "ğŸ‡µğŸ‡ª"},
  {"name": "Philippines", "dial_code": "63", "emoji": "ğŸ‡µğŸ‡­"},
  {"name": "Pologne", "dial_code": "48", "emoji": "ğŸ‡µğŸ‡±"},
  {"name": "Portugal", "dial_code": "351", "emoji": "ğŸ‡µğŸ‡¹"},
  {"name": "Qatar", "dial_code": "974", "emoji": "ğŸ‡¶ğŸ‡¦"},
  {"name": "Roumanie", "dial_code": "40", "emoji": "ğŸ‡·ğŸ‡´"},
  {"name": "Russie", "dial_code": "7", "emoji": "ğŸ‡·ğŸ‡º"},
  {"name": "Rwanda", "dial_code": "250", "emoji": "ğŸ‡·ğŸ‡¼"},
  {"name": "Saint-Christophe-et-NiÃ©vÃ¨s", "dial_code": "1869", "emoji": "ğŸ‡°ğŸ‡³"},
  {"name": "Sainte-Lucie", "dial_code": "1758", "emoji": "ğŸ‡±ğŸ‡¨"},
  {"name": "Saint-Vincent-et-les-Grenadines", "dial_code": "1784", "emoji": "ğŸ‡»ğŸ‡¨"},
  {"name": "Samoa", "dial_code": "685", "emoji": "ğŸ‡¼ğŸ‡¸"},
  {"name": "Saint-Marin", "dial_code": "378", "emoji": "ğŸ‡¸ğŸ‡²"},
  {"name": "Sao TomÃ©-et-Principe", "dial_code": "239", "emoji": "ğŸ‡¸ğŸ‡¹"},
  {"name": "Arabie saoudite", "dial_code": "966", "emoji": "ğŸ‡¸ğŸ‡¦"},
  {"name": "SÃ©nÃ©gal", "dial_code": "221", "emoji": "ğŸ‡¸ğŸ‡³"},
  {"name": "Serbie", "dial_code": "381", "emoji": "ğŸ‡·ğŸ‡¸"},
  {"name": "Seychelles", "dial_code": "248", "emoji": "ğŸ‡¸ğŸ‡¨"},
  {"name": "Sierra Leone", "dial_code": "232", "emoji": "ğŸ‡¸ğŸ‡±"},
  {"name": "Singapour", "dial_code": "65", "emoji": "ğŸ‡¸ğŸ‡¬"},
  {"name": "Slovaquie", "dial_code": "421", "emoji": "ğŸ‡¸ğŸ‡°"},
  {"name": "SlovÃ©nie", "dial_code": "386", "emoji": "ğŸ‡¸ğŸ‡®"},
  {"name": "Ãles Salomon", "dial_code": "677", "emoji": "ğŸ‡¸ğŸ‡§"},
  {"name": "Somalie", "dial_code": "252", "emoji": "ğŸ‡¸ğŸ‡´"},
  {"name": "Afrique du Sud", "dial_code": "27", "emoji": "ğŸ‡¿ğŸ‡¦"},
  {"name": "Soudan du Sud", "dial_code": "211", "emoji": "ğŸ‡¸ğŸ‡¸"},
  {"name": "Espagne", "dial_code": "34", "emoji": "ğŸ‡ªğŸ‡¸"},
  {"name": "Sri Lanka", "dial_code": "94", "emoji": "ğŸ‡±ğŸ‡°"},
  {"name": "Soudan", "dial_code": "249", "emoji": "ğŸ‡¸ğŸ‡©"},
  {"name": "Suriname", "dial_code": "597", "emoji": "ğŸ‡¸ğŸ‡·"},
  {"name": "SuÃ¨de", "dial_code": "46", "emoji": "ğŸ‡¸ğŸ‡ª"},
  {"name": "Suisse", "dial_code": "41", "emoji": "ğŸ‡¨ğŸ‡­"},
  {"name": "Syrie", "dial_code": "963", "emoji": "ğŸ‡¸ğŸ‡¾"},
  {"name": "Tadjikistan", "dial_code": "992", "emoji": "ğŸ‡¹ğŸ‡¯"},
  {"name": "Tanzanie", "dial_code": "255", "emoji": "ğŸ‡¹ğŸ‡¿"},
  {"name": "ThaÃ¯lande", "dial_code": "66", "emoji": "ğŸ‡¹ğŸ‡­"},
  {"name": "Togo", "dial_code": "228", "emoji": "ğŸ‡¹ğŸ‡¬"},
  {"name": "Tonga", "dial_code": "676", "emoji": "ğŸ‡¹ğŸ‡´"},
  {"name": "TrinitÃ©-et-Tobago", "dial_code": "1868", "emoji": "ğŸ‡¹ğŸ‡¹"},
  {"name": "Tunisie", "dial_code": "216", "emoji": "ğŸ‡¹ğŸ‡³"},
  {"name": "Turquie", "dial_code": "90", "emoji": "ğŸ‡¹ğŸ‡·"},
  {"name": "TurkmÃ©nistan", "dial_code": "993", "emoji": "ğŸ‡¹ğŸ‡²"},
  {"name": "Tuvalu", "dial_code": "688", "emoji": "ğŸ‡¹ğŸ‡»"},
  {"name": "Ouganda", "dial_code": "256", "emoji": "ğŸ‡ºğŸ‡¬"},
  {"name": "Ukraine", "dial_code": "380", "emoji": "ğŸ‡ºğŸ‡¦"},
  {"name": "Ã‰mirats arabes unis", "dial_code": "971", "emoji": "ğŸ‡¦ğŸ‡ª"},
  {"name": "Royaume-Uni", "dial_code": "44", "emoji": "ğŸ‡¬ğŸ‡§"},
  {"name": "Ã‰tats-Unis", "dial_code": "1", "emoji": "ğŸ‡ºğŸ‡¸"},
  {"name": "Uruguay", "dial_code": "598", "emoji": "ğŸ‡ºğŸ‡¾"},
  {"name": "OuzbÃ©kistan", "dial_code": "998", "emoji": "ğŸ‡ºğŸ‡¿"},
  {"name": "Vanuatu", "dial_code": "678", "emoji": "ğŸ‡»ğŸ‡º"},
  {"name": "Vatican", "dial_code": "379", "emoji": "ğŸ‡»ğŸ‡¦"},
  {"name": "Venezuela", "dial_code": "58", "emoji": "ğŸ‡»ğŸ‡ª"},
  {"name": "Vietnam", "dial_code": "84", "emoji": "ğŸ‡»ğŸ‡³"},
  {"name": "YÃ©men", "dial_code": "967", "emoji": "ğŸ‡¾ğŸ‡ª"},
  {"name": "Zambie", "dial_code": "260", "emoji": "ğŸ‡¿ğŸ‡²"},
  {"name": "Zimbabwe", "dial_code": "263", "emoji": "ğŸ‡¿ğŸ‡¼"}
]


